ONEWEB-0233             
1 48795U 21045AE  25102.07799907 -.00000007  00000+0 -52221-4 0  9997
2 48795  87.9110 345.1533 0001639  68.1088 292.0216 13.15550391188726
ONEWEB-0236             
1 48797U 21045AG  25101.93077501 -.00000431  00000+0 -11784-2 0  9990
2 48797  87.9113 345.1508 0001643  76.6411 283.4903 13.15548777188678
ONEWEB-0248             
1 48798U 21045AH  25101.94345186  .00000008  00000+0 -14002-4 0  9996
2 48798  87.9103 345.1129 0001338  58.6131 301.5130 13.15550155188832
ONEWEB-0225             
1 48799U 21045AJ  25102.11775694  .00000271  00000+0  68595-3 0  9994
2 48799  87.9106 345.1047 0001772  57.6221 302.5080 13.15547307188881
ONEWEB-0215             
1 48800U 21045AK  25101.93552702 -.00000075  00000+0 -23275-3 0  9999
2 48800  87.9102 345.0977 0001535  54.9443 305.1831 13.15549476187593
ONEWEB-0216             
1 48801U 21045AL  25101.94503736 -.00000006  00000+0 -49986-4 0  9996
2 48801  87.9102 345.1405 0002001  77.8708 282.2646 13.15550310188722
ONEWEB-0239             
1 48802U 21045AM  25101.94978267 -.00000003  00000+0 -42682-4 0  9995
2 48802  87.9112 345.1417 0001274  53.3266 306.7981 13.15550397188781
